{
  "type": "FeatureCollection",
  "features": [
    {
      "type": "Feature",
      "properties": {
        "norad_id": 63632,
        "name": "SHENZHOU-20 (SZ-20)",
        "group": "stations",
        "lat": 18.11798546916611,
        "lon": 92.61481067566807,
        "alt_km": 385.79775502387565,
        "timestamp": "2025-12-03T19:33:05.776184+00:00",
        "meta_object_name": "SHENZHOU-20 (SZ-20)",
        "meta_object_id": "2025-082A",
        "meta_epoch": "2025-12-03T08:40:01.753824",
        "meta_mean_motion": 15.58580261,
        "meta_eccentricity": 0.00100709,
        "meta_inclination": 41.4677,
        "meta_ra_of_asc_node": 73.6192,
        "meta_arg_of_pericenter": 319.5464,
        "meta_mean_anomaly": 40.4624,
        "meta_ephemeris_type": 0,
        "meta_classification_type": "U",
        "meta_norad_cat_id": 63632,
        "meta_element_set_no": 999,
        "meta_rev_at_epoch": 25530,
        "meta_bstar": 0.00034171532,
        "meta_mean_motion_dot": 0.00026743,
        "meta_mean_motion_ddot": 0,
        "tle_line1": "1 63632U 25082A   25337.36113141  .00026743  00000+0  34172-3 0  9998",
        "tle_line2": "2 63632  41.4677  73.6192 0010070 319.5464  40.4624 15.58580261255305"
      },
      "geometry": {
        "type": "Point",
        "coordinates": [
          92.61481067566807,
          18.11798546916611
        ]
      }
    },
    {
      "type": "Feature",
      "properties": {
        "norad_id": 64751,
        "name": "PROGRESS-MS 31",
        "group": "stations",
        "lat": -48.51565001484564,
        "lon": 70.30120639670719,
        "alt_km": 421.8204566940476,
        "timestamp": "2025-12-03T19:33:05.776194+00:00",
        "meta_object_name": "PROGRESS-MS 31",
        "meta_object_id": "2025-146A",
        "meta_epoch": "2025-12-03T01:26:08.635488",
        "meta_mean_motion": 15.49262423,
        "meta_eccentricity": 0.00036204,
        "meta_inclination": 51.6309,
        "meta_ra_of_asc_node": 190.4017,
        "meta_arg_of_pericenter": 198.708,
        "meta_mean_anomaly": 161.3776,
        "meta_ephemeris_type": 0,
        "meta_classification_type": "U",
        "meta_norad_cat_id": 64751,
        "meta_element_set_no": 999,
        "meta_rev_at_epoch": 675,
        "meta_bstar": 0.00021764811,
        "meta_mean_motion_dot": 0.0001167,
        "meta_mean_motion_ddot": 0,
        "tle_line1": "1 64751U 25146A   25337.05982217  .00011670  00000+0  21765-3 0  9993",
        "tle_line2": "2 64751  51.6309 190.4017 0003620 198.7080 161.3776 15.49262423  6752"
      },
      "geometry": {
        "type": "Point",
        "coordinates": [
          70.30120639670719,
          -48.51565001484564
        ]
      }
    },
    {
      "type": "Feature",
      "properties": {
        "norad_id": 64786,
        "name": "TIANZHOU-9",
        "group": "stations",
        "lat": 18.117986350112613,
        "lon": 92.61481186312781,
        "alt_km": 385.7977550393098,
        "timestamp": "2025-12-03T19:33:05.776206+00:00",
        "meta_object_name": "TIANZHOU-9",
        "meta_object_id": "2025-149A",
        "meta_epoch": "2025-12-03T08:40:01.753824",
        "meta_mean_motion": 15.58580261,
        "meta_eccentricity": 0.00100709,
        "meta_inclination": 41.4677,
        "meta_ra_of_asc_node": 73.6192,
        "meta_arg_of_pericenter": 319.5464,
        "meta_mean_anomaly": 40.4624,
        "meta_ephemeris_type": 0,
        "meta_classification_type": "U",
        "meta_norad_cat_id": 64786,
        "meta_element_set_no": 999,
        "meta_rev_at_epoch": 25530,
        "meta_bstar": 0.00034171532,
        "meta_mean_motion_dot": 0.00026743,
        "meta_mean_motion_ddot": 0,
        "tle_line1": "1 64786U 25149A   25337.36113141  .00026743  00000+0  34172-3 0  9993",
        "tle_line2": "2 64786  41.4677  73.6192 0010070 319.5464  40.4624 15.58580261255306"
      },
      "geometry": {
        "type": "Point",
        "coordinates": [
          92.61481186312781,
          18.117986350112613
        ]
      }
    },
    {
      "type": "Feature",
      "properties": {
        "norad_id": 65077,
        "name": "CREW DRAGON 11",
        "group": "stations",
        "lat": -48.51565050881709,
        "lon": 70.30120840400868,
        "alt_km": 421.8204567566736,
        "timestamp": "2025-12-03T19:33:05.776216+00:00",
        "meta_object_name": "CREW DRAGON 11",
        "meta_object_id": "2025-166A",
        "meta_epoch": "2025-12-03T01:26:08.635488",
        "meta_mean_motion": 15.49262423,
        "meta_eccentricity": 0.00036204,
        "meta_inclination": 51.6309,
        "meta_ra_of_asc_node": 190.4017,
        "meta_arg_of_pericenter": 198.708,
        "meta_mean_anomaly": 161.3776,
        "meta_ephemeris_type": 0,
        "meta_classification_type": "U",
        "meta_norad_cat_id": 65077,
        "meta_element_set_no": 999,
        "meta_rev_at_epoch": 214,
        "meta_bstar": 0.00021764811,
        "meta_mean_motion_dot": 0.0001167,
        "meta_mean_motion_ddot": 0,
        "tle_line1": "1 65077U 25166A   25337.05982217  .00011670  00000+0  21765-3 0  9997",
        "tle_line2": "2 65077  51.6309 190.4017 0003620 198.7080 161.3776 15.49262423  2143"
      },
      "geometry": {
        "type": "Point",
        "coordinates": [
          70.30120840400868,
          -48.51565050881709
        ]
      }
    },
    {
      "type": "Feature",
      "properties": {
        "norad_id": 65304,
        "name": "DRAGON CRS-33",
        "group": "stations",
        "lat": -48.51565073334963,
        "lon": 70.30120931641875,
        "alt_km": 421.82045678513714,
        "timestamp": "2025-12-03T19:33:05.776226+00:00",
        "meta_object_name": "DRAGON CRS-33",
        "meta_object_id": "2025-186A",
        "meta_epoch": "2025-12-03T01:26:08.635488",
        "meta_mean_motion": 15.49262423,
        "meta_eccentricity": 0.00036204,
        "meta_inclination": 51.6309,
        "meta_ra_of_asc_node": 190.4017,
        "meta_arg_of_pericenter": 198.708,
        "meta_mean_anomaly": 161.3776,
        "meta_ephemeris_type": 0,
        "meta_classification_type": "U",
        "meta_norad_cat_id": 65304,
        "meta_element_set_no": 999,
        "meta_rev_at_epoch": 11,
        "meta_bstar": 0.00021764811,
        "meta_mean_motion_dot": 0.0001167,
        "meta_mean_motion_ddot": 0,
        "tle_line1": "1 65304U 25186A   25337.05982217  .00011670  00000+0  21765-3 0  9992",
        "tle_line2": "2 65304  51.6309 190.4017 0003620 198.7080 161.3776 15.49262423   111"
      },
      "geometry": {
        "type": "Point",
        "coordinates": [
          70.30120931641875,
          -48.51565073334963
        ]
      }
    },
    {
      "type": "Feature",
      "properties": {
        "norad_id": 65586,
        "name": "PROGRESS-MS 32",
        "group": "stations",
        "lat": -48.51565095788245,
        "lon": 70.30121022882996,
        "alt_km": 421.82045681360523,
        "timestamp": "2025-12-03T19:33:05.776236+00:00",
        "meta_object_name": "PROGRESS-MS 32",
        "meta_object_id": "2025-204A",
        "meta_epoch": "2025-12-03T01:26:08.635488",
        "meta_mean_motion": 15.49262423,
        "meta_eccentricity": 0.00036204,
        "meta_inclination": 51.6309,
        "meta_ra_of_asc_node": 190.4017,
        "meta_arg_of_pericenter": 198.708,
        "meta_mean_anomaly": 161.3776,
        "meta_ephemeris_type": 0,
        "meta_classification_type": "U",
        "meta_norad_cat_id": 65586,
        "meta_element_set_no": 999,
        "meta_rev_at_epoch": 27,
        "meta_bstar": 0.00021764811,
        "meta_mean_motion_dot": 0.0001167,
        "meta_mean_motion_ddot": 0,
        "tle_line1": "1 65586U 25204A   25337.05982217  .00011670  00000+0  21765-3 0  9995",
        "tle_line2": "2 65586  51.6309 190.4017 0003620 198.7080 161.3776 15.49262423   270"
      },
      "geometry": {
        "type": "Point",
        "coordinates": [
          70.30121022882996,
          -48.51565095788245
        ]
      }
    },
    {
      "type": "Feature",
      "properties": {
        "norad_id": 65616,
        "name": "CYGNUS NG-23",
        "group": "stations",
        "lat": -48.51565118241471,
        "lon": 70.30121114123895,
        "alt_km": 421.8204568420733,
        "timestamp": "2025-12-03T19:33:05.776246+00:00",
        "meta_object_name": "CYGNUS NG-23",
        "meta_object_id": "2025-208A",
        "meta_epoch": "2025-12-03T01:26:08.635488",
        "meta_mean_motion": 15.49262423,
        "meta_eccentricity": 0.00036204,
        "meta_inclination": 51.6309,
        "meta_ra_of_asc_node": 190.4017,
        "meta_arg_of_pericenter": 198.708,
        "meta_mean_anomaly": 161.3776,
        "meta_ephemeris_type": 0,
        "meta_classification_type": "U",
        "meta_norad_cat_id": 65616,
        "meta_element_set_no": 999,
        "meta_rev_at_epoch": 22,
        "meta_bstar": 0.00021764811,
        "meta_mean_motion_dot": 0.0001167,
        "meta_mean_motion_ddot": 0,
        "tle_line1": "1 65616U 25208A   25337.05982217  .00011670  00000+0  21765-3 0  9993",
        "tle_line2": "2 65616  51.6309 190.4017 0003620 198.7080 161.3776 15.49262423   229"
      },
      "geometry": {
        "type": "Point",
        "coordinates": [
          70.30121114123895,
          -48.51565118241471
        ]
      }
    }
  ]
}